OBJECT_NAME,OBJECT_ID,EPOCH,MEAN_MOTION,ECCENTRICITY,INCLINATION,RA_OF_ASC_NODE,ARG_OF_PERICENTER,MEAN_ANOMALY,EPHEMERIS_TYPE,CLASSIFICATION_TYPE,NORAD_CAT_ID,ELEMENT_SET_NO,REV_AT_EPOCH,BSTAR,MEAN_MOTION_DOT,MEAN_MOTION_DDOT
STARLINK-32478,2024-196V,2026-05-27T05:59:36.484512,15.30191035,.00013039,53.1603,96.4936,89.7859,270.3291,0,U,61726,999,8918,.15345972E-4,.95E-6,0
STARLINK-32511,2024-196W,2026-05-27T05:50:29.526720,15.30188733,.00012367,53.1607,96.4523,92.1707,267.9435,0,U,61727,999,8918,.15587172E-4,.102E-5,0
STARLINK-32475,2024-196X,2026-05-27T05:41:22.612128,15.30174600,.00014484,53.1609,96.4127,83.9722,276.1444,0,U,61728,999,8918,.19005058E-3,.5269E-4,0
STARLINK-32442,2024-196Y,2026-05-27T05:45:56.144160,15.30220519,.00017616,53.1601,96.4319,94.0195,266.1007,0,U,61729,999,8918,.27564581E-3,.7818E-4,0
COSMOS 2579,2024-197A,2026-05-27T08:03:49.307040,15.24723877,.00032001,97.5591,71.1241,93.3690,266.7913,0,U,61730,999,8729,.181502E-3,.4418E-4,0
DSN-3 (KIRAMEKI-3),2024-198A,2026-05-27T06:02:57.546816,1.00271400,.0000491,0.0186,304.0863,183.8062,351.7306,0,U,61733,999,571,0,-.245E-5,0
IONOSFERA-M 1,2024-199A,2026-05-27T05:40:45.245856,14.22749962,.00011564,98.7201,20.6273,137.1758,222.9510,0,U,61735,999,12472,.47405159E-4,.62E-6,0
IONOSFERA-M 2,2024-199B,2026-05-27T06:30:12.775680,14.22753059,.00017515,98.7200,20.5722,59.3946,300.7404,0,U,61736,999,12785,.45854845E-4,.59E-6,0
SITRO-AIS 16,2024-199C,2026-05-27T05:49:50.969856,14.97475350,.00082978,97.3254,347.8785,126.5703,233.6285,0,U,61737,999,12868,.34583749E-3,.3978E-4,0
SITRO-AIS 15,2024-199D,2026-05-27T07:03:41.935104,14.97486503,.00078023,97.3242,347.9644,129.2521,230.9396,0,U,61738,999,12869,.29715297E-3,.3411E-4,0
SITRO-AIS 21,2024-199E,2026-05-27T06:13:22.881504,14.95026232,.0013766,97.3269,346.4254,129.0148,231.2301,0,U,61739,999,12862,.22934783E-3,.2461E-4,0
SITRO-AIS 22,2024-199F,2026-05-27T05:34:54.332256,14.95789483,.00140418,97.3262,346.6096,128.6034,231.6448,0,U,61740,999,12878,.33498128E-3,.3691E-4,0
SITRO-AIS 24,2024-199G,2026-05-27T05:18:31.406112,14.96036020,.00137068,97.3259,346.6337,130.2725,229.9698,0,U,61741,999,12875,.29190813E-3,.323E-4,0
SITRO-AIS 23,2024-199H,2026-05-27T05:17:16.304640,14.95813743,.00136811,97.3258,346.6269,130.1470,230.0953,0,U,61742,999,12863,.28884226E-3,.3177E-4,0
SITRO-AIS 13,2024-199J,2026-05-27T05:16:37.977600,14.97748719,.00073316,97.3237,348.0496,131.2743,228.9113,0,U,61743,999,12885,.28017569E-3,.3235E-4,0
2024-199K,2024-199K,2026-05-27T06:38:19.456512,15.50661542,.00077565,97.3005,22.1940,8.2975,351.8403,0,U,61744,999,13112,.57921315E-3,.3326E-3,0
POLYTECH UNIVERSE-5,2024-199L,2026-05-27T05:35:54.497760,15.59201122,.00048162,97.2996,24.3492,13.8625,346.2763,0,U,61745,999,13441,.79675895E-3,.62737E-3,0
COLIBRI-S (RS67S),2024-199M,2026-05-27T05:41:35.538432,15.46731401,.0008302,97.3031,20.9123,10.9158,349.2270,0,U,61746,999,13417,.54784988E-3,.27404E-3,0
POLYTECH UNIVERSE-4,2024-199N,2026-05-27T06:18:25.075008,15.44738790,.00088586,97.3037,20.2812,9.0981,351.0427,0,U,61747,999,13413,.50434006E-3,.23552E-3,0
SITRO-AIS 44,2024-199P,2026-05-27T05:22:55.311456,15.64860843,.0003934,97.2929,25.5905,20.3372,339.8044,0,U,61748,999,13450,.898444E-3,.88299E-3,0
VIZARD-ION (RS68S),2024-199Q,2026-05-27T06:45:39.960864,15.53506874,.00061477,97.3027,23.1187,10.1304,350.0072,0,U,61749,999,13432,.64242268E-3,.40874E-3,0
2024-199R,2024-199R,2026-05-27T05:18:08.079840,15.53539131,.00067575,97.2999,22.5137,22.1178,338.0366,0,U,61750,999,13429,.66892283E-3,.4263E-3,0
2024-199S,2024-199S,2026-05-27T06:02:32.102880,15.36406714,.00105036,97.3033,16.8621,32.5030,327.6859,0,U,61751,999,13392,.32297266E-3,.11413E-3,0
SITRO-AIS 14,2024-199T,2026-05-27T06:35:45.750912,14.97545242,.00071716,97.3244,347.9864,129.9156,230.2698,0,U,61752,999,13199,.2567636E-3,.2944E-4,0
HORS 3 (RS81S),2024-199U,2026-05-27T05:29:58.666272,15.53355406,.0006461,97.3014,22.6739,21.3465,338.8056,0,U,61753,999,13430,.64722025E-3,.40959E-3,0
HORS 4 (RS82S),2024-199V,2026-05-27T05:59:19.942368,15.57532476,.00052925,97.2966,23.7686,17.1033,343.0400,0,U,61754,999,13438,.73738947E-3,.54483E-3,0
SITRO-AIS 43,2024-199W,2026-05-27T05:45:21.640320,15.65332940,.00031824,97.2943,25.7490,22.9909,337.1492,0,U,61755,999,13451,.91028872E-3,.91173E-3,0
SITRO-AIS 42,2024-199X,2026-05-27T06:33:24.534432,15.65599436,.00037466,97.2942,25.8540,22.5879,337.5545,0,U,61756,999,13452,.83205288E-3,.8415E-3,0
SITRO-AIS 20,2024-199Z,2026-05-27T06:14:18.161088,14.97826514,.00072088,97.3254,348.1314,127.4360,232.7520,0,U,61758,999,13200,.25112295E-3,.29E-4,0
SITRO-AIS 19,2024-199AA,2026-05-27T06:18:43.823808,14.97798990,.00070003,97.3251,348.1304,129.3116,230.8729,0,U,61759,999,13200,.22383479E-3,.2577E-4,0
SITRO-AIS 41,2024-199AB,2026-05-27T05:46:55.369632,15.64247475,.00033317,97.2965,25.5056,22.3858,337.7546,0,U,61760,999,13449,.90530351E-3,.86825E-3,0
2024-199AC,2024-199AC,2026-05-27T05:50:20.192064,15.55220732,.00050912,97.2958,23.3172,13.2896,346.8492,0,U,61761,999,13435,.68821865E-3,.46635E-3,0
ARCTICSAT 1 (RS74S),2024-199AD,2026-05-27T01:56:47.081472,15.91977389,.00027157,97.2864,29.5851,165.3370,194.7983,0,U,61762,999,13474,.11719436E-2,.384564E-2,.58336903E-4
SIT-HSE,2024-199AE,2026-05-27T05:19:20.294688,15.51091463,.00049893,97.3012,23.1549,27.2578,332.8935,0,U,61763,999,13433,.69910385E-3,.40791E-3,0
SIT-2086,2024-199AF,2026-05-27T05:54:48.324096,15.51471943,.00062035,97.2982,23.2394,358.1674,1.9555,0,U,61764,999,13118,.70976512E-3,.41996E-3,0
2024-199AK,2024-199AK,2026-05-27T05:23:10.230144,15.48648734,.00057902,97.3001,21.7984,26.3341,333.8203,0,U,61768,999,13109,.50790044E-3,.27126E-3,0
KOSAR,2024-199AL,2026-05-27T06:22:25.504608,15.52557821,.00047624,97.2977,22.9135,28.9868,331.1649,0,U,61769,999,13117,.64730423E-3,.39784E-3,0
SITRO-AIS 48,2024-199AN,2026-05-27T06:37:48.269568,15.56003914,.00077303,97.2969,22.7002,24.2063,335.9553,0,U,61771,999,13117,.69962726E-3,.48841E-3,0
HYPERVIEW 1G (RS66S),2024-199AP,2026-05-27T06:17:16.520928,15.70373591,.00042179,97.2925,26.0057,17.0536,343.0867,0,U,61772,999,13138,.10807108E-2,.133492E-2,0
SITRO-AIS 47,2024-199AQ,2026-05-27T06:16:04.132416,15.56650882,.00068344,97.2950,22.8706,24.1141,336.0433,0,U,61773,999,13118,.78505427E-3,.56177E-3,0
SITRO-AIS 46,2024-199AR,2026-05-27T06:34:51.156480,15.58138378,.00067448,97.2927,23.2543,27.1379,333.0228,0,U,61774,999,13121,.79937307E-3,.60491E-3,0
2024-199AS,2024-199AS,2026-05-27T06:48:24.018048,15.43659501,.00146554,97.3025,19.5216,2.9505,357.1827,0,U,61775,999,13094,.43769515E-3,.19734E-3,0
SITRO-AIS 40,2024-199AT,2026-05-27T06:08:31.574400,15.58393160,.00064776,97.2933,23.2894,26.9774,333.1817,0,U,61776,999,13436,.85682459E-3,.65504E-3,0
2024-199AU,2024-199AU,2026-05-27T06:18:40.422240,15.44739426,.00144302,97.3024,19.6952,3.7184,356.4169,0,U,61777,999,13095,.44670309E-3,.20894E-3,0
SITRO-AIS 39,2024-199AV,2026-05-27T06:20:40.217568,15.55852522,.00070383,97.2935,22.5399,23.7540,336.4039,0,U,61778,999,13116,.77603076E-3,.53907E-3,0
ALTAIR (RS65S),2024-199AW,2026-05-27T06:37:37.802208,15.36586490,.00135691,97.3063,16.7691,29.3882,330.8122,0,U,61779,999,13390,.29659481E-3,.10546E-3,0
SITRO-AIS 37,2024-199AX,2026-05-27T06:46:50.516832,15.56855162,.00074125,97.2968,22.9020,22.6390,337.5191,0,U,61780,999,13118,.78356968E-3,.56509E-3,0
ASRTU-1 (AO-123),2024-199AY,2026-05-27T05:54:49.505184,15.35324913,.00147299,97.3035,16.1082,31.0415,329.1696,0,U,61781,999,13071,.28700548E-3,.9802E-4,0
SAMSAT-IONOSPHERE (RS75S),2024-199BB,2026-05-27T05:33:58.274208,15.55594711,.00084134,97.2986,22.6536,15.0199,345.1303,0,U,61784,999,13430,.71117779E-3,.4892E-3,0
RTU MIREA 1 (RS51S),2024-199BC,2026-05-27T05:39:18.161568,15.58591326,.00078751,97.2974,23.3884,12.2557,347.8890,0,U,61785,999,13120,.84908705E-3,.65424E-3,0
SITRO-AIS 38,2024-199BD,2026-05-27T06:02:22.828704,15.47603556,.00096735,97.2985,21.2752,20.8555,339.3088,0,U,61786,999,13107,.71204557E-3,.36795E-3,0
2024-199BE,2024-199BE,2026-05-27T06:41:18.882528,15.36057576,.00142097,97.3044,16.4131,29.5384,330.6660,0,U,61787,999,13388,.32211149E-3,.11271E-3,0
SITRO-AIS 45,2024-199BF,2026-05-27T05:18:12.105216,15.56098113,.00069743,97.2934,22.5680,23.9901,336.1678,0,U,61788,999,13114,.75930433E-3,.53216E-3,0
SITRO-AIS 17,2024-199BG,2026-05-27T06:02:13.249536,14.97835208,.00074529,97.3261,348.1716,131.0552,229.1316,0,U,61789,999,12890,.30634693E-3,.355E-4,0
SITRO-AIS 18,2024-199BH,2026-05-27T06:20:31.209504,14.97787565,.00069301,97.3250,348.1331,131.1429,229.0393,0,U,61790,999,12890,.22190128E-3,.2553E-4,0
STARLINK-32362,2024-202A,2026-05-27T01:30:35.844768,15.27562452,.00015388,43.0028,144.1485,279.0424,81.0254,0,U,61845,999,8803,-.60406594E-4,-.1923E-4,0
STARLINK-32472,2024-202B,2026-05-27T00:53:47.537664,15.27576372,.00009838,43.0007,144.8196,272.4862,87.5877,0,U,61846,999,8743,-.3780238E-5,-.366E-5,0
STARLINK-32352,2024-202C,2026-05-27T01:23:11.175072,15.27576070,.0001373,43.0012,144.1060,266.7683,93.3011,0,U,61847,999,8745,.33266E-4,.653E-5,0
STARLINK-32427,2024-202D,2026-05-27T01:45:23.563296,15.27570228,.00011635,43.0012,144.2237,260.3758,99.6962,0,U,61848,999,8744,.45861722E-4,.1E-4,0
STARLINK-32346,2024-202E,2026-05-27T00:16:47.157888,15.27574478,.00010526,42.9998,144.6200,270.7763,89.2968,0,U,61849,999,8743,.16479422E-4,.191E-5,0
STARLINK-32330,2024-202F,2026-05-27T02:24:00.315360,15.27581376,.00012527,43.0012,154.8102,274.9042,85.1666,0,U,61850,999,8733,.52691095E-4,.1188E-4,0
STARLINK-32379,2024-202G,2026-05-27T01:17:38.262912,15.27571445,.00014347,43.0031,144.0788,270.0217,90.0471,0,U,61851,999,8744,.52864661E-4,.1192E-4,0
STARLINK-32433,2024-202H,2026-05-27T02:29:33.512640,15.27577224,.00012491,43.0009,154.8389,270.9033,89.1675,0,U,61852,999,8733,.20712815E-4,.308E-5,0
STARLINK-32394,2024-202J,2026-05-27T00:59:07.653984,15.27559833,.00042224,43.0080,155.2245,267.4190,92.6178,0,U,61853,999,8731,.34441992E-4,.684E-5,0
